COSMOS 2251 DEB         
1 35645U 93036ANL 26088.16025364  .00005995  00000+0  16106-2 0  9998
2 35645  73.9620 248.1790 0068146  21.1649 339.2303 14.46910262883109
COSMOS 2251 DEB         
1 35646U 93036ANM 26087.43898220  .00000517  00000+0  52729-3 0  9994
2 35646  73.8684 248.2817 0457617 340.1987  45.7077 13.41016357832752
COSMOS 2251 DEB         
1 35647U 93036ANN 26086.31153624  .00001685  00000+0  49212-3 0  9993
2 35647  74.0207  99.9404 0046915 179.0390 181.0866 14.44203685691739
COSMOS 2251 DEB         
1 35650U 93036ANR 26087.68370979  .00015564  00000+0  17157-2 0  9995
2 35650  74.0452 168.4659 0014986 214.1310 274.4157 14.87435942892075
COSMOS 2251 DEB         
1 35660U 93036APB 26084.88124615  .00001255  00000+0  32836-3 0  9993
2 35660  74.0389 299.5598 0016793  62.8878 312.6233 14.50312882673667
COSMOS 2251 DEB         
1 35661U 93036APC 26086.80057039  .00006038  00000+0  61376-3 0  9998
2 35661  74.0112 230.0229 0086861 306.1737  53.1430 14.88213839894309
COSMOS 2251 DEB         
1 35663U 93036APE 26077.88506390  .00003605  00000+0  64548-3 0  9998
2 35663  74.0172 299.0963 0005369 340.7882  19.3084 14.67202834747919
COSMOS 2251 DEB         
1 35667U 93036APJ 26084.28878762  .00003188  00000+0  65232-3 0  9996
2 35667  74.0551 304.4658 0018196 336.6222  23.4115 14.61138536723006
COSMOS 2251 DEB         
1 35668U 93036APK 26084.56450772  .00001378  00000+0  25464-3 0  9997
2 35668  74.0467  23.0874 0080853 103.0184 258.0027 14.64342291891528
COSMOS 2251 DEB         
1 35669U 93036APL 26086.39509399  .00000902  00000+0  79450-3 0  9997
2 35669  73.8635 348.6208 0385312  82.4188 282.0504 13.57435009622094
COSMOS 2251 DEB         
1 35670U 93036APM 26085.07701570  .00015155  00000+0  12775-2 0  9990
2 35670  73.8918 213.9938 0032220 155.3318 204.9416 14.97780408892721
COSMOS 2251 DEB         
1 35671U 93036APN 26086.88255495  .00000648  00000+0  17842-3 0  9993
2 35671  74.0158 242.1396 0039802  28.5734 122.5011 14.48524068882852
COSMOS 2251 DEB         
1 35674U 93036APR 26088.05137237  .00004463  00000+0  97021-3 0  9996
2 35674  74.0569 115.5001 0091120 136.4724 224.3679 14.55740834876578
COSMOS 2251 DEB         
1 35701U 93036APW 26079.48328955  .00001493  00000+0  10387-2 0  9992
2 35701  74.0042 137.9492 0290633 325.4837  32.7707 13.81245618635082
COSMOS 2251 DEB         
1 35703U 93036APY 26088.02049029  .00010239  00000+0  96392-3 0  9995
2 35703  74.0414 189.7022 0064887 233.1455 126.3769 14.92329327682007
COSMOS 2251 DEB         
1 35705U 93036AQA 26087.30709742  .00019443  00000+0  27410-2 0  9992
2 35705  74.2709 292.6452 0029693 199.5099 160.4944 14.76905588874822
