[{"OBJECT_NAME":"COSMOS 2251 DEB","OBJECT_ID":"1993-036ANL","EPOCH":"2026-03-29T03:50:45.914496","MEAN_MOTION":14.46910262,"ECCENTRICITY":0.0068146,"INCLINATION":73.962,"RA_OF_ASC_NODE":248.179,"ARG_OF_PERICENTER":21.1649,"MEAN_ANOMALY":339.2303,"EPHEMERIS_TYPE":0,"CLASSIFICATION_TYPE":"U","NORAD_CAT_ID":35645,"ELEMENT_SET_NO":999,"REV_AT_EPOCH":88310,"BSTAR":0.0016106,"MEAN_MOTION_DOT":5.995e-5,"MEAN_MOTION_DDOT":0},{"OBJECT_NAME":"COSMOS 2251 DEB","OBJECT_ID":"1993-036ANM","EPOCH":"2026-03-28T10:32:08.062080","MEAN_MOTION":13.41016357,"ECCENTRICITY":0.04576171,"INCLINATION":73.8684,"RA_OF_ASC_NODE":248.2817,"ARG_OF_PERICENTER":340.1987,"MEAN_ANOMALY":45.7077,"EPHEMERIS_TYPE":0,"CLASSIFICATION_TYPE":"U","NORAD_CAT_ID":35646,"ELEMENT_SET_NO":999,"REV_AT_EPOCH":83275,"BSTAR":0.00052728956,"MEAN_MOTION_DOT":5.17e-6,"MEAN_MOTION_DDOT":0},{"OBJECT_NAME":"COSMOS 2251 DEB","OBJECT_ID":"1993-036ANN","EPOCH":"2026-03-27T07:28:36.731136","MEAN_MOTION":14.44203685,"ECCENTRICITY":0.0046915,"INCLINATION":74.0207,"RA_OF_ASC_NODE":99.9404,"ARG_OF_PERICENTER":179.039,"MEAN_ANOMALY":181.0866,"EPHEMERIS_TYPE":0,"CLASSIFICATION_TYPE":"U","NORAD_CAT_ID":35647,"ELEMENT_SET_NO":999,"REV_AT_EPOCH":69173,"BSTAR":0.00049212,"MEAN_MOTION_DOT":1.685e-5,"MEAN_MOTION_DDOT":0},{"OBJECT_NAME":"COSMOS 2251 DEB","OBJECT_ID":"1993-036ANR","EPOCH":"2026-03-28T16:24:32.525856","MEAN_MOTION":14.87435942,"ECCENTRICITY":0.00149869,"INCLINATION":74.0452,"RA_OF_ASC_NODE":168.4659,"ARG_OF_PERICENTER":214.131,"MEAN_ANOMALY":274.4157,"EPHEMERIS_TYPE":0,"CLASSIFICATION_TYPE":"U","NORAD_CAT_ID":35650,"ELEMENT_SET_NO":999,"REV_AT_EPOCH":89207,"BSTAR":0.0017156914,"MEAN_MOTION_DOT":0.00015564,"MEAN_MOTION_DDOT":0},{"OBJECT_NAME":"COSMOS 2251 DEB","OBJECT_ID":"1993-036APB","EPOCH":"2026-03-25T21:08:59.667360","MEAN_MOTION":14.50312882,"ECCENTRICITY":0.00167938,"INCLINATION":74.0389,"RA_OF_ASC_NODE":299.5598,"ARG_OF_PERICENTER":62.8878,"MEAN_ANOMALY":312.6233,"EPHEMERIS_TYPE":0,"CLASSIFICATION_TYPE":"U","NORAD_CAT_ID":35660,"ELEMENT_SET_NO":999,"REV_AT_EPOCH":67366,"BSTAR":0.00032836104,"MEAN_MOTION_DOT":1.255e-5,"MEAN_MOTION_DDOT":0},{"OBJECT_NAME":"COSMOS 2251 DEB","OBJECT_ID":"1993-036APC","EPOCH":"2026-03-27T19:12:49.281696","MEAN_MOTION":14.88213839,"ECCENTRICITY":0.00868613,"INCLINATION":74.0112,"RA_OF_ASC_NODE":230.0229,"ARG_OF_PERICENTER":306.1737,"MEAN_ANOMALY":53.143,"EPHEMERIS_TYPE":0,"CLASSIFICATION_TYPE":"U","NORAD_CAT_ID":35661,"ELEMENT_SET_NO":999,"REV_AT_EPOCH":89430,"BSTAR":0.0006137611,"MEAN_MOTION_DOT":6.038e-5,"MEAN_MOTION_DDOT":0},{"OBJECT_NAME":"COSMOS 2251 DEB","OBJECT_ID":"1993-036APE","EPOCH":"2026-03-18T21:14:29.520960","MEAN_MOTION":14.67202834,"ECCENTRICITY":0.00053695,"INCLINATION":74.0172,"RA_OF_ASC_NODE":299.0963,"ARG_OF_PERICENTER":340.7882,"MEAN_ANOMALY":19.3084,"EPHEMERIS_TYPE":0,"CLASSIFICATION_TYPE":"U","NORAD_CAT_ID":35663,"ELEMENT_SET_NO":999,"REV_AT_EPOCH":74791,"BSTAR":0.00064547516,"MEAN_MOTION_DOT":3.605e-5,"MEAN_MOTION_DDOT":0},{"OBJECT_NAME":"COSMOS 2251 DEB","OBJECT_ID":"1993-036APJ","EPOCH":"2026-03-25T06:55:51.250368","MEAN_MOTION":14.61138536,"ECCENTRICITY":0.00181968,"INCLINATION":74.0551,"RA_OF_ASC_NODE":304.4658,"ARG_OF_PERICENTER":336.6222,"MEAN_ANOMALY":23.4115,"EPHEMERIS_TYPE":0,"CLASSIFICATION_TYPE":"U","NORAD_CAT_ID":35667,"ELEMENT_SET_NO":999,"REV_AT_EPOCH":72300,"BSTAR":0.00065232392,"MEAN_MOTION_DOT":3.188e-5,"MEAN_MOTION_DDOT":0},{"OBJECT_NAME":"COSMOS 2251 DEB","OBJECT_ID":"1993-036APK","EPOCH":"2026-03-25T13:32:53.467008","MEAN_MOTION":14.64342291,"ECCENTRICITY":0.0080853,"INCLINATION":74.0467,"RA_OF_ASC_NODE":23.0874,"ARG_OF_PERICENTER":103.0184,"MEAN_ANOMALY":258.0027,"EPHEMERIS_TYPE":0,"CLASSIFICATION_TYPE":"U","NORAD_CAT_ID":35668,"ELEMENT_SET_NO":999,"REV_AT_EPOCH":89152,"BSTAR":0.00025464,"MEAN_MOTION_DOT":1.378e-5,"MEAN_MOTION_DDOT":0},{"OBJECT_NAME":"COSMOS 2251 DEB","OBJECT_ID":"1993-036APL","EPOCH":"2026-03-27T09:28:56.120736","MEAN_MOTION":13.57435009,"ECCENTRICITY":0.0385312,"INCLINATION":73.8635,"RA_OF_ASC_NODE":348.6208,"ARG_OF_PERICENTER":82.4188,"MEAN_ANOMALY":282.0504,"EPHEMERIS_TYPE":0,"CLASSIFICATION_TYPE":"U","NORAD_CAT_ID":35669,"ELEMENT_SET_NO":999,"REV_AT_EPOCH":62209,"BSTAR":0.0007945,"MEAN_MOTION_DOT":9.02e-6,"MEAN_MOTION_DDOT":0},{"OBJECT_NAME":"COSMOS 2251 DEB","OBJECT_ID":"1993-036APM","EPOCH":"2026-03-26T01:50:54.156480","MEAN_MOTION":14.97780408,"ECCENTRICITY":0.00322203,"INCLINATION":73.8918,"RA_OF_ASC_NODE":213.9938,"ARG_OF_PERICENTER":155.3318,"MEAN_ANOMALY":204.9416,"EPHEMERIS_TYPE":0,"CLASSIFICATION_TYPE":"U","NORAD_CAT_ID":35670,"ELEMENT_SET_NO":999,"REV_AT_EPOCH":89272,"BSTAR":0.0012774993,"MEAN_MOTION_DOT":0.00015155,"MEAN_MOTION_DDOT":0},{"OBJECT_NAME":"COSMOS 2251 DEB","OBJECT_ID":"1993-036APN","EPOCH":"2026-03-27T21:10:52.747680","MEAN_MOTION":14.48524068,"ECCENTRICITY":0.00398023,"INCLINATION":74.0158,"RA_OF_ASC_NODE":242.1396,"ARG_OF_PERICENTER":28.5734,"MEAN_ANOMALY":122.5011,"EPHEMERIS_TYPE":0,"CLASSIFICATION_TYPE":"U","NORAD_CAT_ID":35671,"ELEMENT_SET_NO":999,"REV_AT_EPOCH":88285,"BSTAR":0.0001784186,"MEAN_MOTION_DOT":6.48e-6,"MEAN_MOTION_DDOT":0},{"OBJECT_NAME":"COSMOS 2251 DEB","OBJECT_ID":"1993-036APR","EPOCH":"2026-03-29T01:13:58.572768","MEAN_MOTION":14.55740834,"ECCENTRICITY":0.009112,"INCLINATION":74.0569,"RA_OF_ASC_NODE":115.5001,"ARG_OF_PERICENTER":136.4724,"MEAN_ANOMALY":224.3679,"EPHEMERIS_TYPE":0,"CLASSIFICATION_TYPE":"U","NORAD_CAT_ID":35674,"ELEMENT_SET_NO":999,"REV_AT_EPOCH":87657,"BSTAR":0.00097021,"MEAN_MOTION_DOT":4.463e-5,"MEAN_MOTION_DDOT":0},{"OBJECT_NAME":"COSMOS 2251 DEB","OBJECT_ID":"1993-036APW","EPOCH":"2026-03-20T11:35:56.217120","MEAN_MOTION":13.81245618,"ECCENTRICITY":0.02906334,"INCLINATION":74.0042,"RA_OF_ASC_NODE":137.9492,"ARG_OF_PERICENTER":325.4837,"MEAN_ANOMALY":32.7707,"EPHEMERIS_TYPE":0,"CLASSIFICATION_TYPE":"U","NORAD_CAT_ID":35701,"ELEMENT_SET_NO":999,"REV_AT_EPOCH":63508,"BSTAR":0.0010387083,"MEAN_MOTION_DOT":1.493e-5,"MEAN_MOTION_DDOT":0},{"OBJECT_NAME":"COSMOS 2251 DEB","OBJECT_ID":"1993-036APY","EPOCH":"2026-03-29T00:29:30.361056","MEAN_MOTION":14.92329327,"ECCENTRICITY":0.0064887,"INCLINATION":74.0414,"RA_OF_ASC_NODE":189.7022,"ARG_OF_PERICENTER":233.1455,"MEAN_ANOMALY":126.3769,"EPHEMERIS_TYPE":0,"CLASSIFICATION_TYPE":"U","NORAD_CAT_ID":35703,"ELEMENT_SET_NO":999,"REV_AT_EPOCH":68200,"BSTAR":0.00096392,"MEAN_MOTION_DOT":0.00010239,"MEAN_MOTION_DDOT":0},{"OBJECT_NAME":"COSMOS 2251 DEB","OBJECT_ID":"1993-036AQA","EPOCH":"2026-03-28T07:22:13.217088","MEAN_MOTION":14.76905588,"ECCENTRICITY":0.00296939,"INCLINATION":74.2709,"RA_OF_ASC_NODE":292.6452,"ARG_OF_PERICENTER":199.5099,"MEAN_ANOMALY":160.4944,"EPHEMERIS_TYPE":0,"CLASSIFICATION_TYPE":"U","NORAD_CAT_ID":35705,"ELEMENT_SET_NO":999,"REV_AT_EPOCH":87482,"BSTAR":0.0027410025,"MEAN_MOTION_DOT":0.00019443,"MEAN_MOTION_DDOT":0}]
